{
  "norad_id": 61951,
  "name": "STARLINK-11395 [DTC]",
  "history": [
    {
      "epoch": "2026-05-06T12:47:51.013248Z",
      "apogee_km": 360.7877758202558,
      "perigee_km": 358.75131094658354,
      "latitude_deg": 2.646882985956939e-05,
      "longitude_deg": 29.7023677007189,
      "height_km": 360.2784519996891,
      "semi_major_axis_km": 6737.906543383419,
      "eccentricity": 0.00015112,
      "inclination_deg": 53.1573,
      "raan_deg": 86.0574,
      "arg_perigee_deg": 66.6201,
      "mean_anomaly_deg": 293.4976,
      "mean_motion_rev_day": 15.69695046
    },
    {
      "epoch": "2026-05-07T20:53:11.533632Z",
      "apogee_km": 360.6442512887861,
      "perigee_km": 358.1015150588755,
      "latitude_deg": 1.431618680880159e-05,
      "longitude_deg": -99.54119751811291,
      "height_km": 360.3538955706907,
      "semi_major_axis_km": 6737.5098831738305,
      "eccentricity": 0.0001887,
      "inclination_deg": 53.157,
      "raan_deg": 79.4672,
      "arg_perigee_deg": 93.0991,
      "mean_anomaly_deg": 267.0243,
      "mean_motion_rev_day": 15.69833668
    },
    {
      "epoch": "2026-05-08T21:20:07.066752Z",
      "apogee_km": 360.34766535406015,
      "perigee_km": 358.57028753547456,
      "latitude_deg": 5.0965850978285496e-05,
      "longitude_deg": -112.30093602741829,
      "height_km": 360.74244576307024,
      "semi_major_axis_km": 6737.595976444767,
      "eccentricity": 0.0001319,
      "inclination_deg": 53.1566,
      "raan_deg": 74.4429,
      "arg_perigee_deg": 114.6249,
      "mean_anomaly_deg": 245.4907,
      "mean_motion_rev_day": 15.69803579
    },
    {
      "epoch": "2026-05-09T20:15:23.583744Z",
      "apogee_km": 360.4346884191982,
      "perigee_km": 358.3824320415515,
      "latitude_deg": 1.3034633727411415e-05,
      "longitude_deg": -101.7695295452648,
      "height_km": 360.7715391884162,
      "semi_major_axis_km": 6737.545560230375,
      "eccentricity": 0.0001523,
      "inclination_deg": 53.1565,
      "raan_deg": 69.7345,
      "arg_perigee_deg": 116.0132,
      "mean_anomaly_deg": 244.1043,
      "mean_motion_rev_day": 15.69821199
    },
    {
      "epoch": "2026-05-10T13:03:54.946080Z",
      "apogee_km": 360.4547676754146,
      "perigee_km": 358.8134466337124,
      "latitude_deg": 5.9842070149543e-05,
      "longitude_deg": 1.958018808339479,
      "height_km": 360.37494495790884,
      "semi_major_axis_km": 6737.771107154563,
      "eccentricity": 0.0001218,
      "inclination_deg": 53.1569,
      "raan_deg": 66.283,
      "arg_perigee_deg": 77.8757,
      "mean_anomaly_deg": 282.2398,
      "mean_motion_rev_day": 15.69742375
    },
    {
      "epoch": "2026-05-11T19:37:35.156928Z",
      "apogee_km": 360.2566291199528,
      "perigee_km": 358.29873641314043,
      "latitude_deg": 1.1649621371846775e-05,
      "longitude_deg": -103.99356549340797,
      "height_km": 360.72227856464747,
      "semi_major_axis_km": 6737.414682766546,
      "eccentricity": 0.0001453,
      "inclination_deg": 53.156,
      "raan_deg": 60.0041,
      "arg_perigee_deg": 122.8826,
      "mean_anomaly_deg": 237.2332,
      "mean_motion_rev_day": 15.69866941
    }
  ]
}